     2.10           G: GLONASS NAV DATA                     RINEX VERSION / TYPE
teqc  2015Jun23                         20220719 01:25:45UTCPGM / RUN BY / DATE
Linux 2.4.21-27.ELsmp|Opteron|gcc -static|Linux x86_64|=+   COMMENT
  2022     7     8   -0.000000000000D+00                    CORR TO SYSTEM TIME
                                                            END OF HEADER
23 22  7  9 23 15  0.0-4.717055708170D-05-9.094947017729D-13 8.280000000000D+04
   -8.086475097656D+03-6.442928314209D-02-3.725290298462D-09 0.000000000000D+00
    1.341384716797D+04-2.765102386475D+00 1.862645149231D-09 3.000000000000D+00
    2.011808935547D+04 1.816116333008D+00-0.000000000000D+00 0.000000000000D+00
14 22  7  9 23 15  0.0 2.493150532246D-05 0.000000000000D+00 8.436000000000D+04
    4.559828125000D+03-2.536539077759D+00-2.793967723846D-09 0.000000000000D+00
    1.036415429688D+04 1.826925277710D+00 9.313225746155D-10-7.000000000000D+00
    2.287295703125D+04-3.243131637573D-01-9.313225746155D-10 0.000000000000D+00
24 22  7  9 23 45  0.0 1.027630642056D-04 1.818989403546D-12 8.460000000000D+04
   -2.136085937500D+03-2.312154769897D-01-3.725290298462D-09 0.000000000000D+00
    2.143392138672D+04-1.864111900330D+00 9.313225746155D-10 2.000000000000D+00
    1.368722900391D+04 2.883015632629D+00 0.000000000000D+00 0.000000000000D+00
14 22  7  9 23 45  0.0 2.493150532246D-05 0.000000000000D+00 8.460000000000D+04
    3.530742187500D+02-2.104933738708D+00-2.793967723846D-09 0.000000000000D+00
    1.387423583984D+04 2.034487724304D+00 1.862645149231D-09-7.000000000000D+00
    2.141398046875D+04-1.286345481873D+00-0.000000000000D+00 0.000000000000D+00
 2 22  7  9 23 45  0.0 5.236715078354D-04 0.000000000000D+00 8.460000000000D+04
   -5.419009277344D+03-3.008935928345D+00 0.000000000000D+00 0.000000000000D+00
    9.592073242188D+03-9.557895660400D-01-0.000000000000D+00-4.000000000000D+00
   -2.296543164062D+04 3.045558929443D-01 2.793967723846D-09 0.000000000000D+00
 3 22  7  9 23 45  0.0 5.993526428938D-05 0.000000000000D+00 8.460000000000D+04
    1.295595214844D+04-2.295557975769D+00 0.000000000000D+00 0.000000000000D+00
    1.288714111328D+04-8.322095870972D-01-1.862645149231D-09 5.000000000000D+00
   -1.772510644531D+04-2.281988143921D+00 9.313225746155D-10 0.000000000000D+00
12 22  7  9 23 45  0.0 1.922808587551D-05 0.000000000000D+00 8.460000000000D+04
   -2.013787011719D+04 9.367504119873D-01-1.862645149231D-09 0.000000000000D+00
    1.325382177734D+04-6.727504730225D-01 1.862645149231D-09-1.000000000000D+00
   -8.325221191406D+03-3.323420524597D+00 2.793967723846D-09 0.000000000000D+00
13 22  7  9 23 45  0.0-2.446305006742D-05-0.000000000000D+00 8.460000000000D+04
   -1.464875585938D+04-7.087717056274D-01-3.725290298462D-09 0.000000000000D+00
    1.924233789062D+04 8.661155700684D-01 1.862645149231D-09-2.000000000000D+00
    8.098267578125D+03-3.336383819580D+00 1.862645149231D-09 0.000000000000D+00
17 22  7  9 23 45  0.0 5.421042442322D-04 2.728484105319D-12 8.460000000000D+04
    6.832234375000D+03 3.174877166748D-01-1.862645149231D-09 0.000000000000D+00
    2.437133544922D+04 4.002428054810D-01-0.000000000000D+00 4.000000000000D+00
   -3.346835449219D+03 3.558237075806D+00 9.313225746155D-10 0.000000000000D+00
18 22  7  9 23 45  0.0 1.230556517839D-04 9.094947017729D-13 8.481000000000D+04
    1.120493212891D+04 6.513719558716D-01 0.000000000000D+00 0.000000000000D+00
    1.410718505859D+04 2.393346786499D+00-1.862645149231D-09-3.000000000000D+00
   -1.802935400391D+04 2.280697822571D+00 9.313225746155D-10 0.000000000000D+00
